{"type": "FeatureCollection", "features": [ {"type": "Feature", "properties": {"norad_id": 30914, "name": "FENGYUN 1C DEB", "group": "fengyun-1c-debris", "lat": -76.59180568352168, "lon": 8.557524561013786, "alt_km": 1146.4563040153807, "timestamp": "2025-12-18T15:47:11.502792+00:00", "meta": {"OBJECT_NAME": "FENGYUN 1C DEB", "OBJECT_ID": "1999-025AZC", "EPOCH": "2025-12-17T21:54:28.395360", "MEAN_MOTION": 13.08857758, "ECCENTRICITY": 0.05168492, "INCLINATION": 99.9831, "RA_OF_ASC_NODE": 235.491, "ARG_OF_PERICENTER": 342.6151, "MEAN_ANOMALY": 15.7825, "EPHEMERIS_TYPE": 0, "CLASSIFICATION_TYPE": "U", "NORAD_CAT_ID": 30914, "ELEMENT_SET_NO": 999, "REV_AT_EPOCH": 59143, "BSTAR": 0.0037805037, "MEAN_MOTION_DOT": 2.449e-05, "MEAN_MOTION_DDOT": 0}, "tle": {"line1": "1 30914U 99025AZC 25351.91282865  .00002449  00000+0  37805-2 0  9992", "line2": "2 30914  99.9831 235.4910 0516849 342.6151  15.7825 13.08857758591439"}}, "geometry": {"type": "Point", "coordinates": [8.557524561013786, -76.59180568352168]}}, {"type": "Feature", "properties": {"norad_id": 30915, "name": "FENGYUN 1C DEB", "group": "fengyun-1c-debris", "lat": -62.256697259787046, "lon": 86.3622333170441, "alt_km": 846.755765746092, "timestamp": "2025-12-18T15:47:11.502802+00:00", "meta": {"OBJECT_NAME": "FENGYUN 1C DEB", "OBJECT_ID": "1999-025AZD", "EPOCH": "2025-12-18T04:17:31.872768", "MEAN_MOTION": 14.25079369, "ECCENTRICITY": 0.00535998, "INCLINATION": 98.9422, "RA_OF_ASC_NODE": 68.4558, "ARG_OF_PERICENTER": 153.0428, "MEAN_ANOMALY": 207.3553, "EPHEMERIS_TYPE": 0, "CLASSIFICATION_TYPE": "U", "NORAD_CAT_ID": 30915, "ELEMENT_SET_NO": 999, "REV_AT_EPOCH": 96590, "BSTAR": 0.0012116083, "MEAN_MOTION_DOT": 2.838e-05, "MEAN_MOTION_DDOT": 0}, "tle": {"line1": "1 30915U 99025AZD 25352.17884112  .00002838  00000+0  12116-2 0  9995", "line2": "2 30915  98.9422  68.4558 0053599 153.0428 207.3553 14.25079369965904"}}, "geometry": {"type": "Point", "coordinates": [86.3622333170441, -62.256697259787046]}}, {"type": "Feature", "properties": {"norad_id": 30916, "name": "FENGYUN 1C DEB", "group": "fengyun-1c-debris", "lat": -3.7241396527869255, "lon": 53.5839046023663, "alt_km": 885.5451353166309, "timestamp": "2025-12-18T15:47:11.502813+00:00", "meta": {"OBJECT_NAME": "FENGYUN 1C DEB", "OBJECT_ID": "1999-025AZE", "EPOCH": "2025-12-15T02:53:02.433120", "MEAN_MOTION": 14.08806526, "ECCENTRICITY": 0.00629077, "INCLINATION": 99.0027, "RA_OF_ASC_NODE": 49.4608, "ARG_OF_PERICENTER": 251.5943, "MEAN_ANOMALY": 172.237, "EPHEMERIS_TYPE": 0, "CLASSIFICATION_TYPE": "U", "NORAD_CAT_ID": 30916, "ELEMENT_SET_NO": 999, "REV_AT_EPOCH": 95877, "BSTAR": 0.0011632163, "MEAN_MOTION_DOT": 1.999e-05, "MEAN_MOTION_DDOT": 0}, "tle": {"line1": "1 30916U 99025AZE 25349.12016705  .00001999  00000+0  11632-2 0  9991", "line2": "2 30916  99.0027  49.4608 0062907 251.5943 172.2370 14.08806526958770"}}, "geometry": {"type": "Point", "coordinates": [53.5839046023663, -3.7241396527869255]}}, {"type": "Feature", "properties": {"norad_id": 30918, "name": "FENGYUN 1C DEB", "group": "fengyun-1c-debris", "lat": -6.311355902706377, "lon": -76.56787210906525, "alt_km": 881.5004981292122, "timestamp": "2025-12-18T15:47:11.502823+00:00", "meta": {"OBJECT_NAME": "FENGYUN 1C DEB", "OBJECT_ID": "1999-025AZG", "EPOCH": "2025-12-18T06:27:23.290848", "MEAN_MOTION": 13.9684178, "ECCENTRICITY": 0.01575729, "INCLINATION": 98.4171, "RA_OF_ASC_NODE": 104.0144, "ARG_OF_PERICENTER": 110.0383, "MEAN_ANOMALY": 280.6621, "EPHEMERIS_TYPE": 0, "CLASSIFICATION_TYPE": "U", "NORAD_CAT_ID": 30918, "ELEMENT_SET_NO": 999, "REV_AT_EPOCH": 95130, "BSTAR": 0.00084422042, "MEAN_MOTION_DOT": 1.266e-05, "MEAN_MOTION_DDOT": 0}, "tle": {"line1": "1 30918U 99025AZG 25352.26901957  .00001266  00000+0  84422-3 0  9999", "line2": "2 30918  98.4171 104.0144 0157572 110.0383 280.6621 13.96841780951300"}}, "geometry": {"type": "Point", "coordinates": [-76.56787210906525, -6.311355902706377]}}, {"type": "Feature", "properties": {"norad_id": 30920, "name": "FENGYUN 1C DEB", "group": "fengyun-1c-debris", "lat": 26.98553374132791, "lon": -41.44970066618579, "alt_km": 809.3402522882343, "timestamp": "2025-12-18T15:47:11.502833+00:00", "meta": {"OBJECT_NAME": "FENGYUN 1C DEB", "OBJECT_ID": "1999-025AZJ", "EPOCH": "2025-12-18T03:12:53.973792", "MEAN_MOTION": 14.16698634, "ECCENTRICITY": 0.01088875, "INCLINATION": 98.9168, "RA_OF_ASC_NODE": 133.4401, "ARG_OF_PERICENTER": 82.8311, "MEAN_ANOMALY": 278.5228, "EPHEMERIS_TYPE": 0, "CLASSIFICATION_TYPE": "U", "NORAD_CAT_ID": 30920, "ELEMENT_SET_NO": 999, "REV_AT_EPOCH": 95170, "BSTAR": 0.0023955559, "MEAN_MOTION_DOT": 5.032e-05, "MEAN_MOTION_DDOT": 0}, "tle": {"line1": "1 30920U 99025AZJ 25352.13395803  .00005032  00000+0  23956-2 0  9994", "line2": "2 30920  98.9168 133.4401 0108887  82.8311 278.5228 14.16698634951702"}}, "geometry": {"type": "Point", "coordinates": [-41.44970066618579, 26.98553374132791]}}, {"type": "Feature", "properties": {"norad_id": 30921, "name": "FENGYUN 1C DEB", "group": "fengyun-1c-debris", "lat": 20.101610418990845, "lon": 76.99036470241428, "alt_km": 770.6056644218179, "timestamp": "2025-12-18T15:47:11.502843+00:00", "meta": {"OBJECT_NAME": "FENGYUN 1C DEB", "OBJECT_ID": "1999-025AZK", "EPOCH": "2025-12-18T05:57:37.772640", "MEAN_MOTION": 14.32783288, "ECCENTRICITY": 0.00165083, "INCLINATION": 98.8436, "RA_OF_ASC_NODE": 79.8391, "ARG_OF_PERICENTER": 20.3444, "MEAN_ANOMALY": 49.5228, "EPHEMERIS_TYPE": 0, "CLASSIFICATION_TYPE": "U", "NORAD_CAT_ID": 30921, "ELEMENT_SET_NO": 999, "REV_AT_EPOCH": 96903, "BSTAR": 0.0014311442, "MEAN_MOTION_DOT": 3.862e-05, "MEAN_MOTION_DDOT": 0}, "tle": {"line1": "1 30921U 99025AZK 25352.24835385  .00003862  00000+0  14311-2 0  9995", "line2": "2 30921  98.8436  79.8391 0016508  20.3444  49.5228 14.32783288969032"}}, "geometry": {"type": "Point", "coordinates": [76.99036470241428, 20.101610418990845]}}, {"type": "Feature", "properties": {"norad_id": 30922, "name": "FENGYUN 1C DEB", "group": "fengyun-1c-debris", "lat": 0.22202484812265036, "lon": 8.30479439383835, "alt_km": 828.5056424885333, "timestamp": "2025-12-18T15:47:11.502853+00:00", "meta": {"OBJECT_NAME": "FENGYUN 1C DEB", "OBJECT_ID": "1999-025AZL", "EPOCH": "2025-12-17T20:16:47.619840", "MEAN_MOTION": 14.17472346, "ECCENTRICITY": 0.00143973, "INCLINATION": 98.6399, "RA_OF_ASC_NODE": 7.5484, "ARG_OF_PERICENTER": 39.7989, "MEAN_ANOMALY": 135.4591, "EPHEMERIS_TYPE": 0, "CLASSIFICATION_TYPE": "U", "NORAD_CAT_ID": 30922, "ELEMENT_SET_NO": 999, "REV_AT_EPOCH": 96636, "BSTAR": 0.00055225116, "MEAN_MOTION_DOT": 1.078e-05, "MEAN_MOTION_DDOT": 0}, "tle": {"line1": "1 30922U 99025AZL 25351.84499560  .00001078  00000+0  55225-3 0  9999", "line2": "2 30922  98.6399   7.5484 0014397  39.7989 135.4591 14.17472346966366"}}, "geometry": {"type": "Point", "coordinates": [8.30479439383835, 0.22202484812265036]}}, {"type": "Feature", "properties": {"norad_id": 30925, "name": "FENGYUN 1C DEB", "group": "fengyun-1c-debris", "lat": -45.365022490436594, "lon": 133.80124472876406, "alt_km": 756.1591169918565, "timestamp": "2025-12-18T15:47:11.502863+00:00", "meta": {"OBJECT_NAME": "FENGYUN 1C DEB", "OBJECT_ID": "1999-025AZP", "EPOCH": "2025-12-15T20:30:10.349280", "MEAN_MOTION": 14.43176886, "ECCENTRICITY": 0.00332807, "INCLINATION": 98.882, "RA_OF_ASC_NODE": 121.7671, "ARG_OF_PERICENTER": 228.4491, "MEAN_ANOMALY": 288.0412, "EPHEMERIS_TYPE": 0, "CLASSIFICATION_TYPE": "U", "NORAD_CAT_ID": 30925, "ELEMENT_SET_NO": 999, "REV_AT_EPOCH": 97117, "BSTAR": 0.0016134552, "MEAN_MOTION_DOT": 5.414e-05, "MEAN_MOTION_DDOT": 0}, "tle": {"line1": "1 30925U 99025AZP 25349.85428645  .00005414  00000+0  16135-2 0  9990", "line2": "2 30925  98.8820 121.7671 0033280 228.4491 288.0412 14.43176886971175"}}, "geometry": {"type": "Point", "coordinates": [133.80124472876406, -45.365022490436594]}}, {"type": "Feature", "properties": {"norad_id": 30926, "name": "FENGYUN 1C DEB", "group": "fengyun-1c-debris", "lat": 4.801205637731023, "lon": -66.68565247039014, "alt_km": 486.8438580526845, "timestamp": "2025-12-18T15:47:11.502873+00:00", "meta": {"OBJECT_NAME": "FENGYUN 1C DEB", "OBJECT_ID": "1999-025AZQ", "EPOCH": "2025-12-17T18:48:20.421216", "MEAN_MOTION": 14.89420815, "ECCENTRICITY": 0.01652262, "INCLINATION": 98.8026, "RA_OF_ASC_NODE": 293.0879, "ARG_OF_PERICENTER": 5.6369, "MEAN_ANOMALY": 354.6654, "EPHEMERIS_TYPE": 0, "CLASSIFICATION_TYPE": "U", "NORAD_CAT_ID": 30926, "ELEMENT_SET_NO": 999, "REV_AT_EPOCH": 842, "BSTAR": 0.00051060381, "MEAN_MOTION_DOT": 6.199e-05, "MEAN_MOTION_DDOT": 0}, "tle": {"line1": "1 30926U 99025AZQ 25351.78356969  .00006199  00000+0  51060-3 0  9993", "line2": "2 30926  98.8026 293.0879 0165226   5.6369 354.6654 14.89420815  8423"}}, "geometry": {"type": "Point", "coordinates": [-66.68565247039014, 4.801205637731023]}}, {"type": "Feature", "properties": {"norad_id": 30927, "name": "FENGYUN 1C DEB", "group": "fengyun-1c-debris", "lat": -67.31124539582268, "lon": 76.00324811478045, "alt_km": 832.1025341416816, "timestamp": "2025-12-18T15:47:11.502883+00:00", "meta": {"OBJECT_NAME": "FENGYUN 1C DEB", "OBJECT_ID": "1999-025AZR", "EPOCH": "2025-12-17T21:21:43.568640", "MEAN_MOTION": 14.09007565, "ECCENTRICITY": 0.0098227, "INCLINATION": 99.1831, "RA_OF_ASC_NODE": 52.4581, "ARG_OF_PERICENTER": 351.3451, "MEAN_ANOMALY": 8.602, "EPHEMERIS_TYPE": 0, "CLASSIFICATION_TYPE": "U", "NORAD_CAT_ID": 30927, "ELEMENT_SET_NO": 999, "REV_AT_EPOCH": 95756, "BSTAR": 0.0014552608, "MEAN_MOTION_DOT": 2.589e-05, "MEAN_MOTION_DDOT": 0}, "tle": {"line1": "1 30927U 99025AZR 25351.89008760  .00002589  00000+0  14553-2 0  9993", "line2": "2 30927  99.1831  52.4581 0098227 351.3451   8.6020 14.09007565957564"}}, "geometry": {"type": "Point", "coordinates": [76.00324811478045, -67.31124539582268]}}]}